{
  "type": "FeatureCollection",
  "features": [
    {
      "type": "Feature",
      "properties": {
        "norad_id": 66526,
        "name": "STARLINK-35932",
        "group": "last-30-days",
        "lat": 0.5350662312480197,
        "lon": 90.6155088956378,
        "alt_km": 372.77193770228314,
        "timestamp": "2025-12-06T14:35:35.910246+00:00",
        "meta_object_name": "STARLINK-35932",
        "meta_object_id": "2025-265L",
        "meta_epoch": "2025-12-06T06:00:02.000160",
        "meta_mean_motion": 15.66563689,
        "meta_eccentricity": 0.00013003,
        "meta_inclination": 43.0001,
        "meta_ra_of_asc_node": 92.1842,
        "meta_arg_of_pericenter": 279.952,
        "meta_mean_anomaly": 220.2889,
        "meta_ephemeris_type": 0,
        "meta_classification_type": "U",
        "meta_norad_cat_id": 66526,
        "meta_element_set_no": 999,
        "meta_rev_at_epoch": 384,
        "meta_bstar": -0.0207015,
        "meta_mean_motion_dot": -0.01964834,
        "meta_mean_motion_ddot": 0,
        "tle_line1": "1 66526U 25265L   25340.25002315 -.01964834  00000+0 -20702-1 0  9995",
        "tle_line2": "2 66526  43.0001  92.1842 0001300 279.9520 220.2889 15.66563689  3840"
      },
      "geometry": {
        "type": "Point",
        "coordinates": [
          90.6155088956378,
          0.5350662312480197
        ]
      }
    },
    {
      "type": "Feature",
      "properties": {
        "norad_id": 66527,
        "name": "STARLINK-35935",
        "group": "last-30-days",
        "lat": 1.8416605032502826,
        "lon": 92.01411877947353,
        "alt_km": 372.6423321841339,
        "timestamp": "2025-12-06T14:35:35.910258+00:00",
        "meta_object_name": "STARLINK-35935",
        "meta_object_id": "2025-265M",
        "meta_epoch": "2025-12-06T06:00:02.000160",
        "meta_mean_motion": 15.66563497,
        "meta_eccentricity": 0.0001257,
        "meta_inclination": 43.0001,
        "meta_ra_of_asc_node": 92.1796,
        "meta_arg_of_pericenter": 279.7957,
        "meta_mean_anomaly": 222.3628,
        "meta_ephemeris_type": 0,
        "meta_classification_type": "U",
        "meta_norad_cat_id": 66527,
        "meta_element_set_no": 999,
        "meta_rev_at_epoch": 395,
        "meta_bstar": -0.020706116,
        "meta_mean_motion_dot": -0.01965174,
        "meta_mean_motion_ddot": 0,
        "tle_line1": "1 66527U 25265M   25340.25002315 -.01965174  00000+0 -20706-1 0  9998",
        "tle_line2": "2 66527  43.0001  92.1796 0001257 279.7957 222.3628 15.66563497  3955"
      },
      "geometry": {
        "type": "Point",
        "coordinates": [
          92.01411877947353,
          1.8416605032502826
        ]
      }
    },
    {
      "type": "Feature",
      "properties": {
        "norad_id": 66528,
        "name": "STARLINK-35928",
        "group": "last-30-days",
        "lat": 3.1479509078267913,
        "lon": 93.41533271691699,
        "alt_km": 372.51933550212834,
        "timestamp": "2025-12-06T14:35:35.910270+00:00",
        "meta_object_name": "STARLINK-35928",
        "meta_object_id": "2025-265N",
        "meta_epoch": "2025-12-06T06:00:02.000160",
        "meta_mean_motion": 15.66564115,
        "meta_eccentricity": 0.00012833,
        "meta_inclination": 43.0003,
        "meta_ra_of_asc_node": 92.1747,
        "meta_arg_of_pericenter": 278.6064,
        "meta_mean_anomaly": 225.4691,
        "meta_ephemeris_type": 0,
        "meta_classification_type": "U",
        "meta_norad_cat_id": 66528,
        "meta_element_set_no": 999,
        "meta_rev_at_epoch": 395,
        "meta_bstar": -0.020713487,
        "meta_mean_motion_dot": -0.01965854,
        "meta_mean_motion_ddot": 0,
        "tle_line1": "1 66528U 25265N   25340.25002315 -.01965854  00000+0 -20713-1 0  9992",
        "tle_line2": "2 66528  43.0003  92.1747 0001283 278.6064 225.4691 15.66564115  3952"
      },
      "geometry": {
        "type": "Point",
        "coordinates": [
          93.41533271691699,
          3.1479509078267913
        ]
      }
    },
    {
      "type": "Feature",
      "properties": {
        "norad_id": 66529,
        "name": "STARLINK-35933",
        "group": "last-30-days",
        "lat": 4.451843953099872,
        "lon": 94.81935320574895,
        "alt_km": 372.4027568528918,
        "timestamp": "2025-12-06T14:35:35.910280+00:00",
        "meta_object_name": "STARLINK-35933",
        "meta_object_id": "2025-265P",
        "meta_epoch": "2025-12-06T06:00:02.000160",
        "meta_mean_motion": 15.66566511,
        "meta_eccentricity": 0.00012039,
        "meta_inclination": 43.0002,
        "meta_ra_of_asc_node": 92.1696,
        "meta_arg_of_pericenter": 277.6765,
        "meta_mean_anomaly": 228.3165,
        "meta_ephemeris_type": 0,
        "meta_classification_type": "U",
        "meta_norad_cat_id": 66529,
        "meta_element_set_no": 999,
        "meta_rev_at_epoch": 395,
        "meta_bstar": -0.020768301,
        "meta_mean_motion_dot": -0.01970547,
        "meta_mean_motion_ddot": 0,
        "tle_line1": "1 66529U 25265P   25340.25002315 -.01970547  00000+0 -20768-1 0  9998",
        "tle_line2": "2 66529  43.0002  92.1696 0001203 277.6765 228.3165 15.66566511  3954"
      },
      "geometry": {
        "type": "Point",
        "coordinates": [
          94.81935320574895,
          4.451843953099872
        ]
      }
    },
    {
      "type": "Feature",
      "properties": {
        "norad_id": 66530,
        "name": "STARLINK-35961",
        "group": "last-30-days",
        "lat": 5.751804409485923,
        "lon": 96.22775040806205,
        "alt_km": 372.2105350161246,
        "timestamp": "2025-12-06T14:35:35.910290+00:00",
        "meta_object_name": "STARLINK-35961",
        "meta_object_id": "2025-265Q",
        "meta_epoch": "2025-12-06T06:00:02.000160",
        "meta_mean_motion": 15.66562039,
        "meta_eccentricity": 0.00011679,
        "meta_inclination": 43,
        "meta_ra_of_asc_node": 92.1652,
        "meta_arg_of_pericenter": 279.6147,
        "meta_mean_anomaly": 228.2957,
        "meta_ephemeris_type": 0,
        "meta_classification_type": "U",
        "meta_norad_cat_id": 66530,
        "meta_element_set_no": 999,
        "meta_rev_at_epoch": 395,
        "meta_bstar": -0.020688693,
        "meta_mean_motion_dot": -0.01963548,
        "meta_mean_motion_ddot": 0,
        "tle_line1": "1 66530U 25265Q   25340.25002315 -.01963548  00000+0 -20689-1 0  9995",
        "tle_line2": "2 66530  43.0000  92.1652 0001167 279.6147 228.2957 15.66562039  3950"
      },
      "geometry": {
        "type": "Point",
        "coordinates": [
          96.22775040806205,
          5.751804409485923
        ]
      }
    },
    {
      "type": "Feature",
      "properties": {
        "norad_id": 66531,
        "name": "STARLINK-35960",
        "group": "last-30-days",
        "lat": 7.050448007992773,
        "lon": 97.64386851935537,
        "alt_km": 372.073864085095,
        "timestamp": "2025-12-06T14:35:35.910302+00:00",
        "meta_object_name": "STARLINK-35960",
        "meta_object_id": "2025-265R",
        "meta_epoch": "2025-12-06T06:00:02.000160",
        "meta_mean_motion": 15.66563582,
        "meta_eccentricity": 0.00012685,
        "meta_inclination": 43.0004,
        "meta_ra_of_asc_node": 92.1598,
        "meta_arg_of_pericenter": 278.1515,
        "meta_mean_anomaly": 231.6731,
        "meta_ephemeris_type": 0,
        "meta_classification_type": "U",
        "meta_norad_cat_id": 66531,
        "meta_element_set_no": 999,
        "meta_rev_at_epoch": 395,
        "meta_bstar": -0.020671338,
        "meta_mean_motion_dot": -0.0196228,
        "meta_mean_motion_ddot": 0,
        "tle_line1": "1 66531U 25265R   25340.25002315 -.01962280  00000+0 -20671-1 0  9999",
        "tle_line2": "2 66531  43.0004  92.1598 0001268 278.1515 231.6731 15.66563582  3951"
      },
      "geometry": {
        "type": "Point",
        "coordinates": [
          97.64386851935537,
          7.050448007992773
        ]
      }
    },
    {
      "type": "Feature",
      "properties": {
        "norad_id": 66532,
        "name": "STARLINK-35914",
        "group": "last-30-days",
        "lat": 8.345433676006518,
        "lon": 99.06954297756634,
        "alt_km": 371.95909977072006,
        "timestamp": "2025-12-06T14:35:35.910312+00:00",
        "meta_object_name": "STARLINK-35914",
        "meta_object_id": "2025-265S",
        "meta_epoch": "2025-12-06T06:00:02.000160",
        "meta_mean_motion": 15.66566313,
        "meta_eccentricity": 0.00012705,
        "meta_inclination": 43.0002,
        "meta_ra_of_asc_node": 92.1551,
        "meta_arg_of_pericenter": 276.9143,
        "meta_mean_anomaly": 234.8308,
        "meta_ephemeris_type": 0,
        "meta_classification_type": "U",
        "meta_norad_cat_id": 66532,
        "meta_element_set_no": 999,
        "meta_rev_at_epoch": 395,
        "meta_bstar": -0.020771975,
        "meta_mean_motion_dot": -0.0197089,
        "meta_mean_motion_ddot": 0,
        "tle_line1": "1 66532U 25265S   25340.25002315 -.01970890  00000+0 -20772-1 0  9998",
        "tle_line2": "2 66532  43.0002  92.1551 0001270 276.9143 234.8308 15.66566313  3955"
      },
      "geometry": {
        "type": "Point",
        "coordinates": [
          99.06954297756634,
          8.345433676006518
        ]
      }
    }
  ]
}